{"fetched_at":"2026-07-06T18:35:38.131Z","source":"https://celestrak.org/NORAD/elements/gp.php?NAME=ICEYE&FORMAT=JSON","constellation":"iceye","records":[{"OBJECT_NAME":"ICEYE-X53","OBJECT_ID":"2025-135BJ","EPOCH":"2026-07-06T06:59:42.726336","CLASSIFICATION_TYPE":"U","MEAN_MOTION":15.00856457,"ECCENTRICITY":0.00015414,"INCLINATION":97.737,"RA_OF_ASC_NODE":303.9917,"ARG_OF_PERICENTER":165.0448,"MEAN_ANOMALY":195.0822,"EPHEMERIS_TYPE":0,"NORAD_CAT_ID":64584,"ELEMENT_SET_NO":999,"REV_AT_EPOCH":5694,"BSTAR":0.000050509995,"MEAN_MOTION_DOT":0.00000582,"MEAN_MOTION_DDOT":0},{"OBJECT_NAME":"ICEYE-X65","OBJECT_ID":"2025-248H","EPOCH":"2026-07-05T23:08:52.096704","CLASSIFICATION_TYPE":"U","MEAN_MOTION":15.07888744,"ECCENTRICITY":0.00045672,"INCLINATION":45.4051,"RA_OF_ASC_NODE":35.4407,"ARG_OF_PERICENTER":146.5752,"MEAN_ANOMALY":213.5419,"EPHEMERIS_TYPE":0,"NORAD_CAT_ID":66300,"ELEMENT_SET_NO":999,"REV_AT_EPOCH":3835,"BSTAR":0.00028332814,"MEAN_MOTION_DOT":0.00004168,"MEAN_MOTION_DDOT":0},{"OBJECT_NAME":"ICEYE-X66","OBJECT_ID":"2025-248J","EPOCH":"2026-07-05T23:16:33.326688","CLASSIFICATION_TYPE":"U","MEAN_MOTION":15.09135634,"ECCENTRICITY":0.00042217,"INCLINATION":45.4018,"RA_OF_ASC_NODE":34.5904,"ARG_OF_PERICENTER":141.1834,"MEAN_ANOMALY":218.9352,"EPHEMERIS_TYPE":0,"NORAD_CAT_ID":66301,"ELEMENT_SET_NO":999,"REV_AT_EPOCH":3834,"BSTAR":0.00030387641,"MEAN_MOTION_DOT":0.0000465,"MEAN_MOTION_DDOT":0},{"OBJECT_NAME":"ICEYE-X67","OBJECT_ID":"2025-248K","EPOCH":"2026-07-05T23:51:56.803680","CLASSIFICATION_TYPE":"U","MEAN_MOTION":15.09118628,"ECCENTRICITY":0.00057439,"INCLINATION":45.4056,"RA_OF_ASC_NODE":34.0349,"ARG_OF_PERICENTER":142.5689,"MEAN_ANOMALY":217.5594,"EPHEMERIS_TYPE":0,"NORAD_CAT_ID":66302,"ELEMENT_SET_NO":999,"REV_AT_EPOCH":3836,"BSTAR":0.00028995356,"MEAN_MOTION_DOT":0.00004424,"MEAN_MOTION_DDOT":0},{"OBJECT_NAME":"ICEYE-X58","OBJECT_ID":"2025-276CP","EPOCH":"2026-07-06T04:17:11.118624","CLASSIFICATION_TYPE":"U","MEAN_MOTION":15.17311288,"ECCENTRICITY":0.00016735,"INCLINATION":97.4196,"RA_OF_ASC_NODE":260.2422,"ARG_OF_PERICENTER":266.1985,"MEAN_ANOMALY":93.9057,"EPHEMERIS_TYPE":0,"NORAD_CAT_ID":66751,"ELEMENT_SET_NO":999,"REV_AT_EPOCH":3329,"BSTAR":0.00012987169,"MEAN_MOTION_DOT":0.00002522,"MEAN_MOTION_DDOT":0},{"OBJECT_NAME":"ICEYE-X59","OBJECT_ID":"2025-276CQ","EPOCH":"2026-07-06T03:28:05.209536","CLASSIFICATION_TYPE":"U","MEAN_MOTION":15.00697711,"ECCENTRICITY":0.00002415,"INCLINATION":97.4362,"RA_OF_ASC_NODE":257.6336,"ARG_OF_PERICENTER":146.6647,"MEAN_ANOMALY":213.4593,"EPHEMERIS_TYPE":0,"NORAD_CAT_ID":66752,"ELEMENT_SET_NO":999,"REV_AT_EPOCH":3311,"BSTAR":0.00040002251,"MEAN_MOTION_DOT":0.00005011,"MEAN_MOTION_DDOT":0},{"OBJECT_NAME":"ICEYE-X60","OBJECT_ID":"2025-276CR","EPOCH":"2026-07-05T22:18:18.790560","CLASSIFICATION_TYPE":"U","MEAN_MOTION":15.11067773,"ECCENTRICITY":0.00014648,"INCLINATION":97.418,"RA_OF_ASC_NODE":259.0458,"ARG_OF_PERICENTER":5.5996,"MEAN_ANOMALY":354.5251,"EPHEMERIS_TYPE":0,"NORAD_CAT_ID":66753,"ELEMENT_SET_NO":999,"REV_AT_EPOCH":3319,"BSTAR":0.00036884899,"MEAN_MOTION_DOT":0.0000611,"MEAN_MOTION_DDOT":0},{"OBJECT_NAME":"ICEYE-X61","OBJECT_ID":"2025-276CS","EPOCH":"2026-07-06T04:54:26.195040","CLASSIFICATION_TYPE":"U","MEAN_MOTION":15.18573529,"ECCENTRICITY":0.0001575,"INCLINATION":97.419,"RA_OF_ASC_NODE":260.3402,"ARG_OF_PERICENTER":268.0989,"MEAN_ANOMALY":92.0065,"EPHEMERIS_TYPE":0,"NORAD_CAT_ID":66754,"ELEMENT_SET_NO":999,"REV_AT_EPOCH":3330,"BSTAR":0.00018916987,"MEAN_MOTION_DOT":0.00003843,"MEAN_MOTION_DDOT":0},{"OBJECT_NAME":"ICEYE-X62","OBJECT_ID":"2025-276CT","EPOCH":"2026-07-06T03:32:21.592896","CLASSIFICATION_TYPE":"U","MEAN_MOTION":15.10107993,"ECCENTRICITY":0.00010461,"INCLINATION":97.4191,"RA_OF_ASC_NODE":258.7623,"ARG_OF_PERICENTER":333.3164,"MEAN_ANOMALY":26.8011,"EPHEMERIS_TYPE":0,"NORAD_CAT_ID":66755,"ELEMENT_SET_NO":999,"REV_AT_EPOCH":3319,"BSTAR":0.00018168225,"MEAN_MOTION_DOT":0.00002899,"MEAN_MOTION_DDOT":0},{"OBJECT_NAME":"ICEYE-X63","OBJECT_ID":"2026-004K","EPOCH":"2026-07-06T04:12:41.040864","CLASSIFICATION_TYPE":"U","MEAN_MOTION":14.88337402,"ECCENTRICITY":0.00057921,"INCLINATION":97.8008,"RA_OF_ASC_NODE":185.5182,"ARG_OF_PERICENTER":73.9218,"MEAN_ANOMALY":286.2637,"EPHEMERIS_TYPE":0,"NORAD_CAT_ID":67372,"ELEMENT_SET_NO":999,"REV_AT_EPOCH":2612,"BSTAR":0.00011734881,"MEAN_MOTION_DOT":0.00001032,"MEAN_MOTION_DDOT":0},{"OBJECT_NAME":"ICEYE-X64","OBJECT_ID":"2026-004L","EPOCH":"2026-07-05T22:52:19.002144","CLASSIFICATION_TYPE":"U","MEAN_MOTION":14.87971588,"ECCENTRICITY":0.00075758,"INCLINATION":97.802,"RA_OF_ASC_NODE":185.2221,"ARG_OF_PERICENTER":78.1437,"MEAN_ANOMALY":282.0629,"EPHEMERIS_TYPE":0,"NORAD_CAT_ID":67373,"ELEMENT_SET_NO":999,"REV_AT_EPOCH":2608,"BSTAR":0.000177093,"MEAN_MOTION_DOT":0.0000157,"MEAN_MOTION_DDOT":0},{"OBJECT_NAME":"ICEYE-X71","OBJECT_ID":"2026-067CG","EPOCH":"2026-07-05T20:14:50.607456","CLASSIFICATION_TYPE":"U","MEAN_MOTION":14.91764712,"ECCENTRICITY":0.00019127,"INCLINATION":97.7619,"RA_OF_ASC_NODE":144.7927,"ARG_OF_PERICENTER":17.7773,"MEAN_ANOMALY":342.3512,"EPHEMERIS_TYPE":0,"NORAD_CAT_ID":68494,"ELEMENT_SET_NO":999,"REV_AT_EPOCH":1450,"BSTAR":0.00034290214,"MEAN_MOTION_DOT":0.000034,"MEAN_MOTION_DDOT":0},{"OBJECT_NAME":"ICEYE-X73","OBJECT_ID":"2026-067CJ","EPOCH":"2026-07-05T20:59:44.080800","CLASSIFICATION_TYPE":"U","MEAN_MOTION":14.9231838,"ECCENTRICITY":0.00006432,"INCLINATION":97.7612,"RA_OF_ASC_NODE":144.9015,"ARG_OF_PERICENTER":166.3568,"MEAN_ANOMALY":193.7669,"EPHEMERIS_TYPE":0,"NORAD_CAT_ID":68496,"ELEMENT_SET_NO":999,"REV_AT_EPOCH":1451,"BSTAR":0.00030523125,"MEAN_MOTION_DOT":0.00003063,"MEAN_MOTION_DDOT":0},{"OBJECT_NAME":"ICEYE-X75","OBJECT_ID":"2026-067CK","EPOCH":"2026-07-05T21:04:41.087712","CLASSIFICATION_TYPE":"U","MEAN_MOTION":14.9216053,"ECCENTRICITY":0.00006227,"INCLINATION":97.7601,"RA_OF_ASC_NODE":144.8767,"ARG_OF_PERICENTER":151.9158,"MEAN_ANOMALY":208.2094,"EPHEMERIS_TYPE":0,"NORAD_CAT_ID":68497,"ELEMENT_SET_NO":999,"REV_AT_EPOCH":1451,"BSTAR":0.00011787388,"MEAN_MOTION_DOT":0.00001144,"MEAN_MOTION_DDOT":0},{"OBJECT_NAME":"ICEYE-X74","OBJECT_ID":"2026-067CN","EPOCH":"2026-07-05T20:13:36.007968","CLASSIFICATION_TYPE":"U","MEAN_MOTION":14.91765019,"ECCENTRICITY":0.00017166,"INCLINATION":97.7624,"RA_OF_ASC_NODE":144.8015,"ARG_OF_PERICENTER":15.7531,"MEAN_ANOMALY":344.3741,"EPHEMERIS_TYPE":0,"NORAD_CAT_ID":68500,"ELEMENT_SET_NO":999,"REV_AT_EPOCH":1450,"BSTAR":0.00034784949,"MEAN_MOTION_DOT":0.0000345,"MEAN_MOTION_DDOT":0},{"OBJECT_NAME":"ICEYE-X76","OBJECT_ID":"2026-067CQ","EPOCH":"2026-07-06T04:10:19.515936","CLASSIFICATION_TYPE":"U","MEAN_MOTION":14.9173885,"ECCENTRICITY":0.00013634,"INCLINATION":97.7633,"RA_OF_ASC_NODE":145.1449,"ARG_OF_PERICENTER":0.974,"MEAN_ANOMALY":359.1481,"EPHEMERIS_TYPE":0,"NORAD_CAT_ID":68502,"ELEMENT_SET_NO":999,"REV_AT_EPOCH":1455,"BSTAR":0.00013031275,"MEAN_MOTION_DOT":0.00001257,"MEAN_MOTION_DDOT":0}]}
