{ "64584": {"name": "ICEYE-X53", "norad_id": "64584", "line1": "1 64584U 25135BJ  26187.29146674  .00000582  00000+0  50510-4 0  9995", "line2": "2 64584  97.7370 303.9917 0001541 165.0448 195.0822 15.00856457 56945", "country": "Finland", "operator": "ICEYE", "sensor": "SAR", "resolution_m": 3.0, "notes": "book:ICEYE-X(2-7,11-14,17-19,", "fetched_at": 1783341767.7744348, "stale": false}, "66300": {"name": "ICEYE-X65", "norad_id": "66300", "line1": "1 66300U 25248H   26186.96449186  .00004168  00000+0  28333-3 0  9996", "line2": "2 66300  45.4051  35.4407 0004567 146.5752 213.5419 15.07888744 38357", "country": "Finland", "operator": "ICEYE", "sensor": "SAR", "resolution_m": 3.0, "notes": "book:ICEYE-X(2-7,11-14,17-19,", "fetched_at": 1783341768.1244016, "stale": false}, "66301": {"name": "ICEYE-X66", "norad_id": "66301", "line1": "1 66301U 25248J   26186.96983017  .00004650  00000+0  30388-3 0  9992", "line2": "2 66301  45.4018  34.5904 0004221 141.1834 218.9352 15.09135634 38341", "country": "Finland", "operator": "ICEYE", "sensor": "SAR", "resolution_m": 3.0, "notes": "book:ICEYE-X(2-7,11-14,17-19,", "fetched_at": 1783341768.4602222, "stale": false}, "66302": {"name": "ICEYE-X67", "norad_id": "66302", "line1": "1 66302U 25248K   26186.99440745  .00004424  00000+0  28995-3 0  9992", "line2": "2 66302  45.4056  34.0349 0005743 142.5689 217.5594 15.09118628 38364", "country": "Finland", "operator": "ICEYE", "sensor": "SAR", "resolution_m": 3.0, "notes": "book:ICEYE-X(2-7,11-14,17-19,", "fetched_at": 1783341768.8080127, "stale": false}, "66751": {"name": "ICEYE-X58", "norad_id": "66751", "line1": "1 66751U 25276CP  26187.17860091  .00002522  00000+0  12987-3 0  9993", "line2": "2 66751  97.4196 260.2422 0001673 266.1985  93.9057 15.17311288 33292", "country": "Finland", "operator": "ICEYE", "sensor": "SAR", "resolution_m": 3.0, "notes": "book:ICEYE-X(2-7,11-14,17-19,", "fetched_at": 1783341769.142022, "stale": false}, "66752": {"name": "ICEYE-X59", "norad_id": "66752", "line1": "1 66752U 25276CQ  26187.14450474  .00005011  00000+0  40002-3 0  9996", "line2": "2 66752  97.4362 257.6336 0000241 146.6647 213.4593 15.00697711 33114", "country": "Finland", "operator": "ICEYE", "sensor": "SAR", "resolution_m": 3.0, "notes": "book:ICEYE-X(2-7,11-14,17-19,", "fetched_at": 1783341769.474977, "stale": false}, "66753": {"name": "ICEYE-X60", "norad_id": "66753", "line1": "1 66753U 25276CR  26186.92938415  .00006110  00000+0  36885-3 0  9993", "line2": "2 66753  97.4180 259.0458 0001464   5.5996 354.5251 15.11067773 33199", "country": "Finland", "operator": "ICEYE", "sensor": "SAR", "resolution_m": 3.0, "notes": "book:ICEYE-X(2-7,11-14,17-19,", "fetched_at": 1783341769.824583, "stale": false}, "66754": {"name": "ICEYE-X61", "norad_id": "66754", "line1": "1 66754U 25276CS  26187.20446985  .00003843  00000+0  18917-3 0  9998", "line2": "2 66754  97.4190 260.3402 0001575 268.0989  92.0065 15.18573529 33304", "country": "Finland", "operator": "ICEYE", "sensor": "SAR", "resolution_m": 3.0, "notes": "book:ICEYE-X(2-7,11-14,17-19,", "fetched_at": 1783341770.1578486, "stale": false}, "66755": {"name": "ICEYE-X62", "norad_id": "66755", "line1": "1 66755U 25276CT  26187.14747214  .00002899  00000+0  18168-3 0  9999", "line2": "2 66755  97.4191 258.7623 0001046 333.3164  26.8011 15.10107993 33199", "country": "Finland", "operator": "ICEYE", "sensor": "SAR", "resolution_m": 3.0, "notes": "book:ICEYE-X(2-7,11-14,17-19,", "fetched_at": 1783341770.5078182, "stale": false}, "67372": {"name": "ICEYE-X63", "norad_id": "67372", "line1": "1 67372U 26004K   26187.17547501  .00001032  00000+0  11735-3 0  9996", "line2": "2 67372  97.8008 185.5182 0005792  73.9218 286.2637 14.88337402 26127", "country": "Finland", "operator": "ICEYE", "sensor": "SAR", "resolution_m": 3.0, "notes": "book:ICEYE-X(2-7,11-14,17-19,", "fetched_at": 1783341770.841172, "stale": false}, "67373": {"name": "ICEYE-X64", "norad_id": "67373", "line1": "1 67373U 26004L   26186.95299771  .00001570  00000+0  17709-3 0  9999", "line2": "2 67373  97.8020 185.2221 0007575  78.1437 282.0629 14.87971588 26082", "country": "Finland", "operator": "ICEYE", "sensor": "SAR", "resolution_m": 3.0, "notes": "book:ICEYE-X(2-7,11-14,17-19,", "fetched_at": 1783341771.1744168, "stale": false}, "68494": {"name": "ICEYE-X71", "norad_id": "68494", "line1": "1 68494U 26067CG  26186.84364129  .00003400  00000+0  34290-3 0  9999", "line2": "2 68494  97.7619 144.7927 0001912  17.7773 342.3512 14.91764712 14503", "country": "Finland", "operator": "ICEYE", "sensor": "SAR", "resolution_m": 3.0, "notes": "book:ICEYE-X(2-7,11-14,17-19,", "fetched_at": 1783341775.494022, "stale": false}, "68496": {"name": "ICEYE-X73", "norad_id": "68496", "line1": "1 68496U 26067CJ  26186.87481575  .00003063  00000+0  30523-3 0  9999", "line2": "2 68496  97.7612 144.9015 0000643 166.3568 193.7669 14.92318380 14510", "country": "Finland", "operator": "ICEYE", "sensor": "SAR", "resolution_m": 3.0, "notes": "book:ICEYE-X(2-7,11-14,17-19,", "fetched_at": 1783341775.8385582, "stale": false}, "68497": {"name": "ICEYE-X75", "norad_id": "68497", "line1": "1 68497U 26067CK  26186.87825333  .00001144  00000+0  11787-3 0  9993", "line2": "2 68497  97.7601 144.8767 0000622 151.9158 208.2094 14.92160530 14510", "country": "Finland", "operator": "ICEYE", "sensor": "SAR", "resolution_m": 3.0, "notes": "book:ICEYE-X(2-7,11-14,17-19,", "fetched_at": 1783341776.1809494, "stale": false}, "68500": {"name": "ICEYE-X74", "norad_id": "68500", "line1": "1 68500U 26067CN  26186.84277787  .00003450  00000+0  34785-3 0  9994", "line2": "2 68500  97.7624 144.8015 0001716  15.7531 344.3741 14.91765019 14505", "country": "Finland", "operator": "ICEYE", "sensor": "SAR", "resolution_m": 3.0, "notes": "book:ICEYE-X(2-7,11-14,17-19,", "fetched_at": 1783341776.6231594, "stale": false}, "68502": {"name": "ICEYE-X76", "norad_id": "68502", "line1": "1 68502U 26067CQ  26187.17383699  .00001257  00000+0  13031-3 0  9997", "line2": "2 68502  97.7633 145.1449 0001363   0.9740 359.1481 14.91738850 14551", "country": "Finland", "operator": "ICEYE", "sensor": "SAR", "resolution_m": 3.0, "notes": "book:ICEYE-X(2-7,11-14,17-19,", "fetched_at": 1783341776.9978993, "stale": false}}